<?xml version="1.0" encoding="UTF-8"?>
<ndm xmlns:xsi="http://www.w3.org/2001/XMLSchema-instance" xsi:noNamespaceSchemaLocation="https://sanaregistry.org/r/ndmxml_unqualified/ndmxml-2.0.0-master-2.0.xsd">
<omm id="CCSDS_OMM_VERS" version="2.0">
<header><CREATION_DATE/><ORIGINATOR/></header><body><segment><metadata><OBJECT_NAME>ORBCOMM FM33</OBJECT_NAME><OBJECT_ID>1999-065D</OBJECT_ID><CENTER_NAME>EARTH</CENTER_NAME><REF_FRAME>TEME</REF_FRAME><TIME_SYSTEM>UTC</TIME_SYSTEM><MEAN_ELEMENT_THEORY>SGP4</MEAN_ELEMENT_THEORY></metadata><data><meanElements><EPOCH>2024-05-12T08:56:22.201152</EPOCH><MEAN_MOTION>14.37686961</MEAN_MOTION><ECCENTRICITY>.000826</ECCENTRICITY><INCLINATION>45.0280</INCLINATION><RA_OF_ASC_NODE>101.1591</RA_OF_ASC_NODE><ARG_OF_PERICENTER>217.5027</ARG_OF_PERICENTER><MEAN_ANOMALY>304.4436</MEAN_ANOMALY></meanElements><tleParameters><EPHEMERIS_TYPE>0</EPHEMERIS_TYPE><CLASSIFICATION_TYPE>U</CLASSIFICATION_TYPE><NORAD_CAT_ID>25983</NORAD_CAT_ID><ELEMENT_SET_NO>999</ELEMENT_SET_NO><REV_AT_EPOCH>27833</REV_AT_EPOCH><BSTAR>.19611E-2</BSTAR><MEAN_MOTION_DOT>.5814E-4</MEAN_MOTION_DOT><MEAN_MOTION_DDOT>0</MEAN_MOTION_DDOT></tleParameters></data></segment></body></omm>
<omm id="CCSDS_OMM_VERS" version="2.0">
<header><CREATION_DATE/><ORIGINATOR/></header><body><segment><metadata><OBJECT_NAME>ORBCOMM FM36</OBJECT_NAME><OBJECT_ID>1999-065E</OBJECT_ID><CENTER_NAME>EARTH</CENTER_NAME><REF_FRAME>TEME</REF_FRAME><TIME_SYSTEM>UTC</TIME_SYSTEM><MEAN_ELEMENT_THEORY>SGP4</MEAN_ELEMENT_THEORY></metadata><data><meanElements><EPOCH>2024-05-12T12:32:38.948064</EPOCH><MEAN_MOTION>14.35583986</MEAN_MOTION><ECCENTRICITY>.0001208</ECCENTRICITY><INCLINATION>45.0376</INCLINATION><RA_OF_ASC_NODE>185.9843</RA_OF_ASC_NODE><ARG_OF_PERICENTER>85.5190</ARG_OF_PERICENTER><MEAN_ANOMALY>274.5796</MEAN_ANOMALY></meanElements><tleParameters><EPHEMERIS_TYPE>0</EPHEMERIS_TYPE><CLASSIFICATION_TYPE>U</CLASSIFICATION_TYPE><NORAD_CAT_ID>25984</NORAD_CAT_ID><ELEMENT_SET_NO>999</ELEMENT_SET_NO><REV_AT_EPOCH>27679</REV_AT_EPOCH><BSTAR>.175E-2</BSTAR><MEAN_MOTION_DOT>.495E-4</MEAN_MOTION_DOT><MEAN_MOTION_DDOT>0</MEAN_MOTION_DDOT></tleParameters></data></segment></body></omm>
<omm id="CCSDS_OMM_VERS" version="2.0">
<header><CREATION_DATE/><ORIGINATOR/></header><body><segment><metadata><OBJECT_NAME>ORBCOMM FM35</OBJECT_NAME><OBJECT_ID>1999-065F</OBJECT_ID><CENTER_NAME>EARTH</CENTER_NAME><REF_FRAME>TEME</REF_FRAME><TIME_SYSTEM>UTC</TIME_SYSTEM><MEAN_ELEMENT_THEORY>SGP4</MEAN_ELEMENT_THEORY></metadata><data><meanElements><EPOCH>2024-05-12T11:53:37.865760</EPOCH><MEAN_MOTION>14.35154724</MEAN_MOTION><ECCENTRICITY>.000435</ECCENTRICITY><INCLINATION>45.0376</INCLINATION><RA_OF_ASC_NODE>188.7676</RA_OF_ASC_NODE><ARG_OF_PERICENTER>218.4171</ARG_OF_PERICENTER><MEAN_ANOMALY>141.6367</MEAN_ANOMALY></meanElements><tleParameters><EPHEMERIS_TYPE>0</EPHEMERIS_TYPE><CLASSIFICATION_TYPE>U</CLASSIFICATION_TYPE><NORAD_CAT_ID>25985</NORAD_CAT_ID><ELEMENT_SET_NO>999</ELEMENT_SET_NO><REV_AT_EPOCH>27718</REV_AT_EPOCH><BSTAR>.16323E-2</BSTAR><MEAN_MOTION_DOT>.4567E-4</MEAN_MOTION_DOT><MEAN_MOTION_DDOT>0</MEAN_MOTION_DDOT></tleParameters></data></segment></body></omm>
<omm id="CCSDS_OMM_VERS" version="2.0">
<header><CREATION_DATE/><ORIGINATOR/></header><body><segment><metadata><OBJECT_NAME>ORBCOMM FM34</OBJECT_NAME><OBJECT_ID>1999-065G</OBJECT_ID><CENTER_NAME>EARTH</CENTER_NAME><REF_FRAME>TEME</REF_FRAME><TIME_SYSTEM>UTC</TIME_SYSTEM><MEAN_ELEMENT_THEORY>SGP4</MEAN_ELEMENT_THEORY></metadata><data><meanElements><EPOCH>2024-05-12T11:11:06.725184</EPOCH><MEAN_MOTION>14.35124689</MEAN_MOTION><ECCENTRICITY>.0002877</ECCENTRICITY><INCLINATION>45.0372</INCLINATION><RA_OF_ASC_NODE>189.4415</RA_OF_ASC_NODE><ARG_OF_PERICENTER>171.3239</ARG_OF_PERICENTER><MEAN_ANOMALY>188.7659</MEAN_ANOMALY></meanElements><tleParameters><EPHEMERIS_TYPE>0</EPHEMERIS_TYPE><CLASSIFICATION_TYPE>U</CLASSIFICATION_TYPE><NORAD_CAT_ID>25986</NORAD_CAT_ID><ELEMENT_SET_NO>999</ELEMENT_SET_NO><REV_AT_EPOCH>27729</REV_AT_EPOCH><BSTAR>.18133E-2</BSTAR><MEAN_MOTION_DOT>.5086E-4</MEAN_MOTION_DOT><MEAN_MOTION_DDOT>0</MEAN_MOTION_DDOT></tleParameters></data></segment></body></omm>
<omm id="CCSDS_OMM_VERS" version="2.0">
<header><CREATION_DATE/><ORIGINATOR/></header><body><segment><metadata><OBJECT_NAME>ORBCOMM FM38</OBJECT_NAME><OBJECT_ID>2008-031A</OBJECT_ID><CENTER_NAME>EARTH</CENTER_NAME><REF_FRAME>TEME</REF_FRAME><TIME_SYSTEM>UTC</TIME_SYSTEM><MEAN_ELEMENT_THEORY>SGP4</MEAN_ELEMENT_THEORY></metadata><data><meanElements><EPOCH>2024-05-12T12:39:42.129216</EPOCH><MEAN_MOTION>14.77547460</MEAN_MOTION><ECCENTRICITY>.0005168</ECCENTRICITY><INCLINATION>48.4417</INCLINATION><RA_OF_ASC_NODE>59.2168</RA_OF_ASC_NODE><ARG_OF_PERICENTER>124.1157</ARG_OF_PERICENTER><MEAN_ANOMALY>236.0248</MEAN_ANOMALY></meanElements><tleParameters><EPHEMERIS_TYPE>0</EPHEMERIS_TYPE><CLASSIFICATION_TYPE>U</CLASSIFICATION_TYPE><NORAD_CAT_ID>33060</NORAD_CAT_ID><ELEMENT_SET_NO>999</ELEMENT_SET_NO><REV_AT_EPOCH>85542</REV_AT_EPOCH><BSTAR>.10114E-2</BSTAR><MEAN_MOTION_DOT>.7098E-4</MEAN_MOTION_DOT><MEAN_MOTION_DDOT>0</MEAN_MOTION_DDOT></tleParameters></data></segment></body></omm>
<omm id="CCSDS_OMM_VERS" version="2.0">
<header><CREATION_DATE/><ORIGINATOR/></header><body><segment><metadata><OBJECT_NAME>ORBCOMM FM41</OBJECT_NAME><OBJECT_ID>2008-031B</OBJECT_ID><CENTER_NAME>EARTH</CENTER_NAME><REF_FRAME>TEME</REF_FRAME><TIME_SYSTEM>UTC</TIME_SYSTEM><MEAN_ELEMENT_THEORY>SGP4</MEAN_ELEMENT_THEORY></metadata><data><meanElements><EPOCH>2024-05-12T12:54:37.984896</EPOCH><MEAN_MOTION>14.77275501</MEAN_MOTION><ECCENTRICITY>.0004322</ECCENTRICITY><INCLINATION>48.4448</INCLINATION><RA_OF_ASC_NODE>65.7934</RA_OF_ASC_NODE><ARG_OF_PERICENTER>108.3672</ARG_OF_PERICENTER><MEAN_ANOMALY>61.8888</MEAN_ANOMALY></meanElements><tleParameters><EPHEMERIS_TYPE>0</EPHEMERIS_TYPE><CLASSIFICATION_TYPE>U</CLASSIFICATION_TYPE><NORAD_CAT_ID>33061</NORAD_CAT_ID><ELEMENT_SET_NO>999</ELEMENT_SET_NO><REV_AT_EPOCH>85492</REV_AT_EPOCH><BSTAR>.10211E-2</BSTAR><MEAN_MOTION_DOT>.7122E-4</MEAN_MOTION_DOT><MEAN_MOTION_DDOT>0</MEAN_MOTION_DDOT></tleParameters></data></segment></body></omm>
<omm id="CCSDS_OMM_VERS" version="2.0">
<header><CREATION_DATE/><ORIGINATOR/></header><body><segment><metadata><OBJECT_NAME>ORBCOMM FM29</OBJECT_NAME><OBJECT_ID>2008-031C</OBJECT_ID><CENTER_NAME>EARTH</CENTER_NAME><REF_FRAME>TEME</REF_FRAME><TIME_SYSTEM>UTC</TIME_SYSTEM><MEAN_ELEMENT_THEORY>SGP4</MEAN_ELEMENT_THEORY></metadata><data><meanElements><EPOCH>2024-05-12T14:15:32.852736</EPOCH><MEAN_MOTION>14.77210065</MEAN_MOTION><ECCENTRICITY>.0006123</ECCENTRICITY><INCLINATION>48.4398</INCLINATION><RA_OF_ASC_NODE>73.5632</RA_OF_ASC_NODE><ARG_OF_PERICENTER>106.3069</ARG_OF_PERICENTER><MEAN_ANOMALY>64.2225</MEAN_ANOMALY></meanElements><tleParameters><EPHEMERIS_TYPE>0</EPHEMERIS_TYPE><CLASSIFICATION_TYPE>U</CLASSIFICATION_TYPE><NORAD_CAT_ID>33062</NORAD_CAT_ID><ELEMENT_SET_NO>999</ELEMENT_SET_NO><REV_AT_EPOCH>85484</REV_AT_EPOCH><BSTAR>.10149E-2</BSTAR><MEAN_MOTION_DOT>.7067E-4</MEAN_MOTION_DOT><MEAN_MOTION_DDOT>0</MEAN_MOTION_DDOT></tleParameters></data></segment></body></omm>
<omm id="CCSDS_OMM_VERS" version="2.0">
<header><CREATION_DATE/><ORIGINATOR/></header><body><segment><metadata><OBJECT_NAME>ORBCOMM FM39</OBJECT_NAME><OBJECT_ID>2008-031D</OBJECT_ID><CENTER_NAME>EARTH</CENTER_NAME><REF_FRAME>TEME</REF_FRAME><TIME_SYSTEM>UTC</TIME_SYSTEM><MEAN_ELEMENT_THEORY>SGP4</MEAN_ELEMENT_THEORY></metadata><data><meanElements><EPOCH>2024-05-12T14:19:04.707264</EPOCH><MEAN_MOTION>14.76210280</MEAN_MOTION><ECCENTRICITY>.0007054</ECCENTRICITY><INCLINATION>48.4404</INCLINATION><RA_OF_ASC_NODE>94.0831</RA_OF_ASC_NODE><ARG_OF_PERICENTER>79.7601</ARG_OF_PERICENTER><MEAN_ANOMALY>280.4108</MEAN_ANOMALY></meanElements><tleParameters><EPHEMERIS_TYPE>0</EPHEMERIS_TYPE><CLASSIFICATION_TYPE>U</CLASSIFICATION_TYPE><NORAD_CAT_ID>33063</NORAD_CAT_ID><ELEMENT_SET_NO>999</ELEMENT_SET_NO><REV_AT_EPOCH>85454</REV_AT_EPOCH><BSTAR>.99326E-3</BSTAR><MEAN_MOTION_DOT>.6748E-4</MEAN_MOTION_DOT><MEAN_MOTION_DDOT>0</MEAN_MOTION_DDOT></tleParameters></data></segment></body></omm>

</ndm>
