ORBCOMM FM33            
1 25983U 99065D   24133.37247918  .00005814  00000+0  19611-2 0  9997
2 25983  45.0280 101.1591 0008260 217.5027 304.4436 14.37686961278334
ORBCOMM FM36            
1 25984U 99065E   24133.52267301  .00004950  00000+0  17500-2 0  9998
2 25984  45.0376 185.9843 0001208  85.5190 274.5796 14.35583986276795
ORBCOMM FM35            
1 25985U 99065F   24133.49557715  .00004567  00000+0  16323-2 0  9992
2 25985  45.0376 188.7676 0004350 218.4171 141.6367 14.35154724277184
ORBCOMM FM34            
1 25986U 99065G   24133.46605006  .00005086  00000+0  18133-2 0  9995
2 25986  45.0372 189.4415 0002877 171.3239 188.7659 14.35124689277299
ORBCOMM FM38            
1 33060U 08031A   24133.52757094  .00007098  00000+0  10114-2 0  9998
2 33060  48.4417  59.2168 0005168 124.1157 236.0248 14.77547460855428
ORBCOMM FM41            
1 33061U 08031B   24133.53793964  .00007122  00000+0  10211-2 0  9992
2 33061  48.4448  65.7934 0004322 108.3672  61.8888 14.77275501854925
ORBCOMM FM29            
1 33062U 08031C   24133.59413024  .00007067  00000+0  10149-2 0  9993
2 33062  48.4398  73.5632 0006123 106.3069  64.2225 14.77210065854848
ORBCOMM FM39            
1 33063U 08031D   24133.59658226  .00006748  00000+0  99326-3 0  9999
2 33063  48.4404  94.0831 0007054  79.7601 280.4108 14.76210280854542
